[Satellite]
VERSION=1.1
NAME=GSAT0224
NICKNAME=GSAT0224
TLE1=1 49810U 21116B   22341.83832456 -.00000089  00000+0  00000+0 0  9990
TLE2=2 49810  57.2227  16.3962 0002681 227.5625 130.7284  1.70476327  6257
STATUS=0
